[{"OBJECT_NAME":"STARLINK-1559","OBJECT_ID":"2020-055BC","EPOCH":"2026-03-09T05:36:23.522976","MEAN_MOTION":15.29461733,"ECCENTRICITY":0.0004229,"INCLINATION":53.0254,"RA_OF_ASC_NODE":76.0659,"ARG_OF_PERICENTER":33.971,"MEAN_ANOMALY":326.1559,"EPHEMERIS_TYPE":0,"CLASSIFICATION_TYPE":"U","NORAD_CAT_ID":46077,"ELEMENT_SET_NO":999,"REV_AT_EPOCH":30951,"BSTAR":0.0014778793,"MEAN_MOTION_DOT":0.00042685,"MEAN_MOTION_DDOT":0},{"OBJECT_NAME":"STARLINK-35569","OBJECT_ID":"2025-262R","EPOCH":"2026-03-09T00:14:08.728800","MEAN_MOTION":15.27594777,"ECCENTRICITY":5.701e-5,"INCLINATION":42.9935,"RA_OF_ASC_NODE":299.9058,"ARG_OF_PERICENTER":217.453,"MEAN_ANOMALY":142.6282,"EPHEMERIS_TYPE":0,"CLASSIFICATION_TYPE":"U","NORAD_CAT_ID":66471,"ELEMENT_SET_NO":999,"REV_AT_EPOCH":1880,"BSTAR":0.0010944296,"MEAN_MOTION_DOT":0.0002999,"MEAN_MOTION_DDOT":0}]
